ERS 9                   
1 00635U 63030B   21275.29657473  .00000005  00000-0  13645-2 0  9992
2 00635  88.3946 311.6546 0058125 316.7177  42.9116  8.57932239823029
THOR ABLESTAR DEB       
1 00643U 61015GU  21275.39678142  .00001789  00000-0  28123-2 0  9996
2 00643  66.3724 335.8979 0347450 274.0711  82.0696 13.30749267880832
THOR ABLESTAR DEB       
1 00644U 61015GV  21275.72711297  .00000273  00000-0  43413-3 0  9990
2 00644  67.0968 268.2699 0158940 263.8018 273.7233 13.58165745964134
THOR ABLESTAR DEB       
1 00645U 61015GW  21275.30805943  .00000169  00000-0  48950-3 0  9992
2 00645  66.5894 279.3327 0408807  23.3530 352.0064 13.03627840855698
THOR ABLESTAR DEB       
1 00648U 61015GZ  21275.92444612  .00000226  00000-0  37044-3 0  9991
2 00648  65.8784 192.7263 0204631 337.8912  88.9900 13.57166549965615
THOR ABLESTAR DEB       
1 00649U 61015HA  21275.71677571 -.00000061  00000-0 -11776-4 0  9995
2 00649  66.2704  27.6013 0557943 144.7224   4.6823 12.64599139775283
THOR ABLESTAR DEB       
1 00652U 61015HD  21275.87317134  .00000695  00000-0  42942-3 0  9991
2 00652  66.6950 161.7652 0080017 131.8856 228.9095 14.09659977 51001
THOR ABLESTAR DEB       
1 00653U 61015HE  21275.63050845  .00000044  00000-0  12284-3 0  9993
2 00653  67.4591 142.2180 0164273 263.3666 125.3059 13.66288666982771
THOR ABLESTAR DEB       
1 00655U 61015HG  21275.59888260  .00000331  00000-0  84168-3 0  9999
2 00655  67.2577 222.5273 0360693  55.7772 114.1204 13.07842813862056
THOR ABLESTAR DEB       
1 00656U 61015HH  21275.75984531  .00000521  00000-0  11849-2 0  9992
2 00656  66.2883 101.7452 0679932 238.9237 114.3344 12.68366565748717
THOR ABLESTAR DEB       
1 00657U 61015HJ  21275.90027818  .00000057  00000-0  26282-3 0  9998
2 00657  66.2179 151.4013 0332149 180.8448 192.7198 13.11140193879309
THOR ABLESTAR DEB       
1 00658U 61015HK  21275.91140512 -.00001030  00000-0 -12275-2 0  9997
2 00658  65.8617 173.3143 0369612 300.4871  56.0155 13.37666276829464
THOR ABLESTAR DEB       
1 00659U 61015HL  21275.88300684 -.00000290  00000-0 -63347-3 0  9996
2 00659  67.1638 202.2413 0591956 275.4656 144.3994 12.65608745773495
THOR ABLESTAR DEB       
1 00660U 61015HM  21275.73905929  .00001118  00000-0  24558-3 0  9994
2 00660  66.5243  24.0540 0040325   1.0032 149.6811 14.61070048131393
THOR ABLESTAR R/B       
1 00669U 63038A   21275.93951400  .00000030  00000-0  35427-4 0  9997
2 00669  90.0409 333.1694 0026600  12.3698 161.2337 13.45989925848544
TRANSIT 5B-1            
1 00670U 63038B   21275.69889923  .00000045  00000-0  62116-4 0  9993
2 00670  90.0311 333.6145 0039345 273.2126  86.4521 13.44356546843261
RADIATION SAT (5E-1)    
1 00671U 63038C   21275.69825584  .00000049  00000-0  68478-4 0  9998
2 00671  90.0319 333.5678 0038773 231.5663 128.2002 13.44876706844037
THOR ABLESTAR DEB       
1 00672U 63038D   21275.69691271 -.00000422  00000-0 -52455-3 0  9997
2 00672  90.0428 333.7528 0035118 146.8116 343.8018 13.65839013867137
VELA 2                  
1 00674U 63039A   21276.79085282  .00000205  00000-0  00000-0 0  9994
2 00674  40.5282 139.3494 2309828 117.4238   0.0718  0.22202179  5568
VELA 1                  
1 00692U 63039C   21274.95649808 -.00001111  00000-0  00000-0 0  9998
2 00692  12.5189 315.9937 5422695 266.6147 358.5714  0.22091665  9370
ATLAS CENTAUR 2         
1 00694U 63047A   21275.80985001  .00000656  00000-0  72309-4 0  9999
2 00694  30.3574 169.4429 0584685 328.9216  27.8007 14.02887519903477
ATLAS CENTAUR 2 DEB     
1 00698U 63047D   21275.84469590  .00000559  00000-0  18254-3 0  9997
2 00698  29.9271 336.2229 0547792 226.0382 129.3743 13.69396544842967
ATLAS CENTAUR 2 DEB     
1 00700U 63047F   21275.67754194  .00000200  00000-0  56498-4 0  9995
2 00700  30.4805 266.2800 0723714   6.3610 354.5617 13.38624623819651
ATLAS CENTAUR 2 DEB     
1 00701U 63047G   21275.93855110  .00000125  00000-0  12281-4 0  9993
2 00701  30.0122 227.0928 0528656 199.8948 158.0279 13.77161083872723
WESTFORD NEEDLES        
1 00702U 63014H   21274.19533195 -.00000026  00000-0 -12827-1 0  9996
2 00702  87.3428 354.5242 0247378 352.5313   7.1893  8.65748954845428
THOR ABLESTAR R/B       
1 00703U 63049A   21275.89974324  .00000044  00000-0  53386-4 0  9992
2 00703  89.9005  85.3394 0015656 186.8986 288.4076 13.49842830847437
TRANSIT 5B-2            
1 00704U 63049B   21275.92830274  .00000052  00000-0  70618-4 0  9998
2 00704  89.8991  85.8517 0034199 194.9437 335.3176 13.46870330840010
TRANSIT 5E-3            
1 00705U 63049C   21275.90492472  .00000053  00000-0  70033-4 0  9993
2 00705  89.8993  85.7894 0034691 155.5409 326.2867 13.47367446840712
THOR ABLESTAR DEB       
1 00706U 63049D   21275.74170027  .00000175  00000-0  23800-3 0  9999
2 00706  89.9031  88.8539 0028857  43.2831 329.8771 13.55450175850430
THOR ABLESTAR DEB       
1 00715U 63049E   21275.50796441  .00000386  00000-0  41391-3 0  9996
2 00715  89.9127  93.6178 0029342 277.8247 135.9826 13.71936953867453
TIROS 8                 
1 00716U 63054A   21276.19560152 -.00000056  00000-0  21449-4 0  9995
2 00716  58.4945 260.8754 0021219 189.5532 170.5105 14.69624162 83990
DELTA 1 DEB             
1 00720U 63054C   21275.92050055  .00000092  00000-0  66014-4 0  9992
2 00720  58.4710 136.8608 0118444  69.0959 292.2700 14.47150567 32500
SCOUT X-4 R/B           
1 00721U 63053B   21275.69207484  .00000102  00000-0  65728-4 0  9999
2 00721  78.6137   3.6504 1087150 257.8012  89.9448 12.53768657634598
SCOUT X-4 DEB           
1 00724U 63053E   21275.93113522  .00007586  00000-0  17291-2 0  9991
2 00724  78.5937 230.9795 0385217  69.5817 294.6272 14.18790467771117
THOR AGENA D R/B        
1 00727U 64001A   21275.75920144 -.00000037  00000-0  12251-4 0  9992
2 00727  69.9089  18.0513 0010611  94.4349 265.7969 13.95408541937383
GGSE 1 (GGRS)           
1 00728U 64001B   21275.83262988  .00000012  00000-0  46887-4 0  9991
2 00728  69.9069 302.3277 0011920  28.1076 332.0670 13.97200696939600
SECOR 1B                
1 00729U 64001C   21275.67796726 -.00000041  00000-0  91790-5 0  9993
2 00729  69.9037  18.2944 0011503 127.0758 233.1400 13.94924500937090
SOLRAD 7A               
1 00730U 64001D   21275.68456215 -.00000023  00000-0  22284-4 0  9993
2 00730  69.9092   6.1737 0010933  76.6571  31.3976 13.95653315820830
GREB                    
1 00731U 64001E   21275.88011631 -.00000010  00000-0  31791-4 0  9994
2 00731  69.9088 357.4413 0011034  71.3582 288.8720 13.95878227937764
SCOUT X-4 DEB           
1 00732U 63053H   21275.74680212  .00003516  00000-0  13346-2 0  9990
2 00732  78.5808 171.6036 0537377  15.1092 346.5406 13.72753150736855
THOR AGENA D R/B        
1 00733U 64002A   21275.73491313  .00000043  00000-0  33300-4 0  9993
2 00733  98.9771 190.6439 0032898 296.0844  63.6953 14.32457331  6417
OPS 3367 A              
1 00734U 64002B   21275.65610338  .00000012  00000-0  23963-4 0  9995
2 00734  99.1169 120.2603 0015361 124.0713 236.1928 14.28910823  3281
OPS 3367 B              
1 00735U 64002C   21275.50341293  .00000011  00000-0  24043-4 0  9990
2 00735  99.1364 114.0720 0015873 233.2873 126.6849 14.27861993  1395
RELAY 2                 
1 00737U 64003A   21275.16177936 -.00000010  00000-0  00000-0 0  9999
2 00737  46.4591 120.4750 2593872 254.2415  75.9563  7.39530180558915
DELTA 1 R/B             
1 00738U 64003B   21274.26455219 -.00000010  00000-0  00000-0 0  9993
2 00738  46.4575 129.6192 2596701 245.8835  84.9892  7.39325580558264
ATLAS CENTAUR 2 DEB     
1 00739U 63047H   21275.67485845  .00000385  00000-0  51122-4 0  9994
2 00739  30.4246 268.6917 0646868 349.2456   9.4875 13.82496917903252
THOR AGENA B R/B        
1 00741U 64004B   21275.86358924  .00000063  00000-0  11199-3 0  9991
2 00741  81.4878 126.8013 0172097 158.2523 214.4488 13.23665409785722
THOR AGENA B DEB        
1 00742U 64004C   21275.83328930  .00000004  00000-0 -16681-4 0  9991
2 00742  81.4704  28.4544 0171923  45.6053 315.9001 13.25982839789601
THOR AGENA B DEB        
1 00743U 64004D   21275.84504834  .00000065  00000-0  11601-3 0  9994
2 00743  81.5197 131.4069 0173794 290.2221  79.0212 13.26510036790284
THOR ABLESTAR DEB       
1 00745U 63038E   21275.90081328  .00000207  00000-0  28984-3 0  9997
2 00745  90.0477 333.5982 0015628 257.3931 278.7135 13.54546243858797
ELEKTRON 1              
1 00746U 64006A   21275.49834800  .00000279  00000-0  93524-4 0  9991
2 00746  60.8468 343.3987 3028432 147.7729 235.0794  9.04041616911357
ELEKTRON 1 DEB          
1 00750U 64006C   21275.86256824  .00004902  00000-0  63741-3 0  9995
2 00750  60.7715 346.1573 1692305   4.9660 356.5904 11.81157611638427
THOR ABLESTAR DEB       
1 00753U 63049F   21275.77993646  .00000169  00000-0  23529-3 0  9995
2 00753  89.9031  88.4886 0029417 157.3482 217.9358 13.53855041847955
OPS 4412 (TRANSIT 9)    
1 00801U 64026A   21275.77542181  .00000230  00000-0  11320-3 0  9994
2 00801  90.5168  94.3393 0049173 166.9542 193.2930 14.14753385943002
SCOUT X-4 DEB           
1 00805U 64026B   21275.22155148  .00000664  00000-0  26301-3 0  9997
2 00805  89.9080 352.5039 0035298 117.8587 242.6191 14.27664785944260
SCOUT X-4 R/B           
1 00809U 64026D   21275.78545140  .00000188  00000-0  10197-3 0  9994
2 00809  90.5120  85.3328 0041484 153.5908 206.7403 14.09289518936015
OPS 4467 A              
1 00812U 64031A   21275.79384617  .00000003  00000-0  24735-4 0  9995
2 00812  99.7743 208.2207 0005035 215.6699 144.4140 14.23898950971693
OPS 4467 B              
1 00813U 64031B   21275.79986769 -.00000004  00000-0  22144-4 0  9996
2 00813  99.7827 206.5064 0004740 309.7064  50.3692 14.23084765970969
THOR AGENA D R/B        
1 00815U 64031C   21275.81018163  .00000006  00000-0  24484-4 0  9995
2 00815  99.8178 347.0878 0012614  98.6608 261.5998 14.27379499975776
ELEKTRON 3              
1 00829U 64038A   21275.74062657  .00000512  00000-0  14911-3 0  9991
2 00829  60.8282  45.9955 2978225 251.5246  74.2416  9.14275274857751
